H1 CPF  1  DLR 2022 08 26 10  7382 technosat            
H2  1704205 6203    42829 2022 08 26 00 00 00 2022 09 02 00 00 00    60 1 1  0 0 0
H9
10 0 59818  57600.000000  0        817689.429       2530382.859       6424494.360
10 0 59818  57660.000000  0       1095767.179       2849067.089       6247437.490
10 0 59818  57720.000000  0       1371935.262       3153274.017       6043761.474
10 0 59818  57780.000000  0       1644891.937       3441736.160       5814328.297
10 0 59818  57840.000000  0       1913337.782       3713263.556       5560110.299
10 0 59818  57900.000000  0       2175981.985       3966748.931       5282186.225
10 0 59818  57960.000000  0       2431548.701       4201172.471       4981736.739
10 0 59818  58020.000000  0       2678783.365       4415606.137       4660039.416
10 0 59818  58080.000000  0       2916458.906       4609217.502       4318463.356
10 0 59818  58140.000000  0       3143381.893       4781273.189       3958463.419
10 0 59818  58200.000000  0       3358398.624       4931141.870       3581574.131
10 0 59818  58260.000000  0       3560401.210       5058296.939       3189403.166
10 0 59818  58320.000000  0       3748333.554       5162318.622       2783624.179
10 0 59818  58380.000000  0       3921196.891       5242895.246       2365969.240
10 0 59818  58440.000000  0       4078054.949       5299823.989       1938221.299
10 0 59818  58500.000000  0       4218038.986       5333011.304       1502206.479
10 0 59818  58560.000000  0       4340352.634       5342472.920       1059786.016
10 0 59818  58620.000000  0       4444276.334       5328333.140        612847.813
10 0 59818  58680.000000  0       4529171.253       5290823.440        163297.966
10 0 59818  58740.000000  0       4594482.874       5230280.573       -286947.628
10 0 59818  58800.000000  0       4639744.211       5147144.196       -735971.724
10 0 59818  58860.000000  0       4664578.579       5041954.021      -1181864.172
10 0 59818  58920.000000  0       4668701.895       4915346.475      -1622730.326
10 0 59818  58980.000000  0       4651924.505       4768050.920      -2056699.318
10 0 59818  59040.000000  0       4614152.558       4600885.419      -2481932.200
10 0 59818  59100.000000  0       4555388.901       4414752.114      -2896629.887
10 0 59818  59160.000000  0       4475733.457       4210632.229      -3299040.892
10 0 59818  59220.000000  0       4375383.086       3989580.698      -3687468.737
10 0 59818  59280.000000  0       4254631.016       3752720.537      -4060278.987
10 0 59818  59340.000000  0       4113865.880       3501236.977      -4415906.014
10 0 59818  59400.000000  0       3953570.254       3236371.343      -4752859.407
10 0 59818  59460.000000  0       3774318.780       2959414.776      -5069729.968
10 0 59818  59520.000000  0       3576775.855       2671701.821      -5365195.346
10 0 59818  59580.000000  0       3361692.889       2374603.876      -5638025.215
10 0 59818  59640.000000  0       3129905.232       2069522.580      -5887085.993
10 0 59818  59700.000000  0       2882328.711       1757883.155      -6111345.165
10 0 59818  59760.000000  0       2619955.803       1441127.754      -6309875.107
10 0 59818  59820.000000  0       2343851.532       1120708.853      -6481856.469
10 0 59818  59880.000000  0       2055149.065        798082.697      -6626581.100
10 0 59818  59940.000000  0       1755045.097        474702.844      -6743454.555
10 0 59818  60000.000000  0       1444794.951        152013.810      -6831998.290
10 0 59818  60060.000000  0       1125707.306       -168555.259      -6891851.399
10 0 59818  60120.000000  0        799138.699       -485596.766      -6922771.744
10 0 59818  60180.000000  0        466487.902       -797730.611      -6924636.662
10 0 59818  60240.000000  0        129190.123      -1103609.962      -6897443.300
10 0 59818  60300.000000  0       -211288.968      -1401926.820      -6841308.531
10 0 59818  60360.000000  0       -553459.385      -1691417.382      -6756468.521
10 0 59818  60420.000000  0       -895813.184      -1970867.248      -6643277.846
10 0 59818  60480.000000  0      -1236830.899      -2239116.402      -6502208.130
10 0 59818  60540.000000  0      -1574988.082      -2495063.908      -6333846.213
10 0 59818  60600.000000  0      -1908761.878      -2737672.301      -6138891.955
10 0 59818  60660.000000  0      -2236637.678      -2965971.728      -5918155.641
10 0 59818  60720.000000  0      -2557115.831      -3179063.814      -5672555.001
10 0 59818  60780.000000  0      -2868718.416      -3376125.259      -5403111.814
10 0 59818  60840.000000  0      -3169996.045      -3556411.128      -5110948.010
10 0 59818  60900.000000  0      -3459534.575      -3719257.743      -4797281.312
10 0 59818  60960.000000  0      -3735961.730      -3864085.218      -4463420.521
10 0 59818  61020.000000  0      -3997953.625      -3990399.640      -4110760.406
10 0 59818  61080.000000  0      -4244241.178      -4097794.876      -3740776.209
10 0 59818  61140.000000  0      -4473616.365      -4185953.993      -3355017.763
10 0 59818  61200.000000  0      -4684938.271      -4254650.266      -2955103.218
10 0 59818  61260.000000  0      -4877138.889      -4303747.766      -2542712.438
10 0 59818  61320.000000  0      -5049228.644      -4333201.507      -2119580.072
10 0 59818  61380.000000  0      -5200301.624      -4343057.172      -1687488.357
10 0 59818  61440.000000  0      -5329540.456      -4333450.422      -1248259.644
10 0 59818  61500.000000  0      -5436220.806      -4304605.759       -803748.696
10 0 59818  61560.000000  0      -5519715.503      -4256834.962       -355834.810
10 0 59818  61620.000000  0      -5579498.222      -4190535.113         93586.245
10 0 59818  61680.000000  0      -5615146.694      -4106186.219        542610.433
10 0 59818  61740.000000  0      -5626345.420      -4004348.387        989333.747
10 0 59818  61800.000000  0      -5612887.841      -3885658.590       1431860.518
10 0 59818  61860.000000  0      -5574677.987      -3750827.050       1868311.677
10 0 59818  61920.000000  0      -5511731.606      -3600633.275       2296832.939
10 0 59818  61980.000000  0      -5424176.737      -3435921.786       2715602.874
10 0 59818  62040.000000  0      -5312253.752      -3257597.565       3122840.835
10 0 59818  62100.000000  0      -5176314.868      -3066621.221       3516814.721
10 0 59818  62160.000000  0      -5016823.093      -2864003.882       3895848.541
10 0 59818  62220.000000  0      -4834350.597      -2650801.850       4258329.690
10 0 59818  62280.000000  0      -4629576.547      -2428111.094       4602715.853
10 0 59818  62340.000000  0      -4403284.478      -2197061.623       4927541.561
10 0 59818  62400.000000  0      -4156359.200      -1958811.770       5231424.419
10 0 59818  62460.000000  0      -3889783.247      -1714542.403       5513070.974
10 0 59818  62520.000000  0      -3604632.877      -1465451.079       5771282.246
10 0 59818  62580.000000  0      -3302073.583      -1212746.111       6004958.857
10 0 59818  62640.000000  0      -2983355.165       -957640.671       6213105.681
10 0 59818  62700.000000  0      -2649806.393       -701346.878       6394836.021
10 0 59818  62760.000000  0      -2302829.296       -445069.981       6549375.262
10 0 59818  62820.000000  0      -1943893.138       -190002.693       6676064.016
10 0 59818  62880.000000  0      -1574528.131         62680.309       6774360.835
10 0 59818  62940.000000  0      -1196318.891        311827.782       6843844.490
10 0 59818  63000.000000  0       -810897.601        556317.200       6884215.769
10 0 59818  63060.000000  0       -419936.931        795059.843       6895298.762
10 0 59818  63120.000000  0        -25142.760       1027005.685       6877041.644
10 0 59818  63180.000000  0        371753.286       1251148.062       6829517.003
10 0 59818  63240.000000  0        769001.499       1466528.136       6752921.640
10 0 59818  63300.000000  0       1164841.858       1672239.072       6647575.790
10 0 59818  63360.000000  0       1557511.864       1867429.894       6513921.900
10 0 59818  63420.000000  0       1945254.454       2051309.078       6352522.910
10 0 59818  63480.000000  0       2326325.929       2223147.831       6164060.073
10 0 59818  63540.000000  0       2699003.944       2382283.105       5949330.300
10 0 59818  63600.000000  0       3061595.508       2528120.256       5709242.948
10 0 59818  63660.000000  0       3412444.869       2660135.350       5444816.091
10 0 59818  63720.000000  0       3749941.267       2777877.135       5157172.293
10 0 59818  63780.000000  0       4072526.490       2880968.650       4847533.950
10 0 59818  63840.000000  0       4378702.296       2969108.462       4517218.209
10 0 59818  63900.000000  0       4667037.611       3042071.480       4167631.496
10 0 59818  63960.000000  0       4936175.713       3099709.523       3800263.651
10 0 59818  64020.000000  0       5184841.048       3141951.390       3416681.214
10 0 59818  64080.000000  0       5411845.305       3168802.318       3018520.587
10 0 59818  64140.000000  0       5616093.315       3180343.319       2607481.056
10 0 59818  64200.000000  0       5796588.600       3176730.109       2185317.325
10 0 59818  64260.000000  0       5952438.443       3158191.600       1753831.784
10 0 59818  64320.000000  0       6082858.456       3125028.015       1314866.515
10 0 59818  64380.000000  0       6187176.631       3077608.621        870295.080
10 0 59818  64440.000000  0       6264836.769       3016369.098        422014.158
10 0 59818  64500.000000  0       6315401.357       2941808.572        -28064.881
10 0 59818  64560.000000  0       6338553.866       2854486.298       -478024.491
10 0 59818  64620.000000  0       6334100.371       2755018.000       -925949.440
10 0 59818  64680.000000  0       6301970.580       2644072.055      -1369935.143
10 0 59818  64740.000000  0       6242218.386       2522365.510      -1808095.974
99
